{
  "type": "FeatureCollection",
  "features": [
    {
      "type": "Feature",
      "properties": {
        "norad_id": 39773,
        "name": "EUTELSAT 3B",
        "group": "eutelsat",
        "lat": -0.016927116993417132,
        "lon": -176.08081415672783,
        "alt_km": 35773.6720432106,
        "timestamp": "2025-12-24T05:51:19.276797+00:00",
        "meta_object_name": "EUTELSAT 3B",
        "meta_object_id": "2014-030A",
        "meta_epoch": "2025-12-23T21:42:25.165152",
        "meta_mean_motion": 1.00272581,
        "meta_eccentricity": 0.00043092,
        "meta_inclination": 0.0612,
        "meta_ra_of_asc_node": 346.8553,
        "meta_arg_of_pericenter": 244.7582,
        "meta_mean_anomaly": 189.7879,
        "meta_ephemeris_type": 0,
        "meta_classification_type": "U",
        "meta_norad_cat_id": 39773,
        "meta_element_set_no": 999,
        "meta_rev_at_epoch": 4231,
        "meta_bstar": 0,
        "meta_mean_motion_dot": 4.1e-07,
        "meta_mean_motion_ddot": 0,
        "tle_line1": "1 39773U 14030A   25357.90445793  .00000041  00000+0  00000+0 0  9993",
        "tle_line2": "2 39773   0.0612 346.8553 0004309 244.7582 189.7879  1.00272581 42317"
      },
      "geometry": {
        "type": "Point",
        "coordinates": [
          -176.08081415672783,
          -0.016927116993417132
        ]
      }
    },
    {
      "type": "Feature",
      "properties": {
        "norad_id": 40425,
        "name": "EUTELSAT 115 WEST B",
        "group": "eutelsat",
        "lat": -0.008074572291078745,
        "lon": 65.92514604643485,
        "alt_km": 35786.497386142524,
        "timestamp": "2025-12-24T05:51:19.276809+00:00",
        "meta_object_name": "EUTELSAT 115 WEST B",
        "meta_object_id": "2015-010B",
        "meta_epoch": "2025-12-23T12:35:11.985792",
        "meta_mean_motion": 1.00271081,
        "meta_eccentricity": 1.668e-05,
        "meta_inclination": 0.0089,
        "meta_ra_of_asc_node": 154.9718,
        "meta_arg_of_pericenter": 161.1699,
        "meta_mean_anomaly": 210.0501,
        "meta_ephemeris_type": 0,
        "meta_classification_type": "U",
        "meta_norad_cat_id": 40425,
        "meta_element_set_no": 999,
        "meta_rev_at_epoch": 3963,
        "meta_bstar": 0,
        "meta_mean_motion_dot": -4e-08,
        "meta_mean_motion_ddot": 0,
        "tle_line1": "1 40425U 15010B   25357.52444428 -.00000004  00000+0  00000+0 0  9990",
        "tle_line2": "2 40425   0.0089 154.9718 0000166 161.1699 210.0501  1.00271081 39635"
      },
      "geometry": {
        "type": "Point",
        "coordinates": [
          65.92514604643485,
          -0.008074572291078745
        ]
      }
    },
    {
      "type": "Feature",
      "properties": {
        "norad_id": 40875,
        "name": "EUTELSAT 8 WEST B",
        "group": "eutelsat",
        "lat": 0.021565107358858783,
        "lon": 172.7962301901379,
        "alt_km": 35789.569119121195,
        "timestamp": "2025-12-24T05:51:19.276820+00:00",
        "meta_object_name": "EUTELSAT 8 WEST B",
        "meta_object_id": "2015-039B",
        "meta_epoch": "2025-12-23T21:39:17.964000",
        "meta_mean_motion": 1.00271245,
        "meta_eccentricity": 0.00042387,
        "meta_inclination": 0.0639,
        "meta_ra_of_asc_node": 6.2561,
        "meta_arg_of_pericenter": 267.262,
        "meta_mean_anomaly": 135.9909,
        "meta_ephemeris_type": 0,
        "meta_classification_type": "U",
        "meta_norad_cat_id": 40875,
        "meta_element_set_no": 999,
        "meta_rev_at_epoch": 3789,
        "meta_bstar": 0,
        "meta_mean_motion_dot": -4.5e-07,
        "meta_mean_motion_ddot": 0,
        "tle_line1": "1 40875U 15039B   25357.90229125 -.00000045  00000+0  00000+0 0  9992",
        "tle_line2": "2 40875   0.0639   6.2561 0004238 267.2620 135.9909  1.00271245 37891"
      },
      "geometry": {
        "type": "Point",
        "coordinates": [
          172.7962301901379,
          0.021565107358858783
        ]
      }
    },
    {
      "type": "Feature",
      "properties": {
        "norad_id": 41310,
        "name": "EUTELSAT 9B",
        "group": "eutelsat",
        "lat": 0.013717706743560015,
        "lon": -170.19074946484594,
        "alt_km": 35782.82238484587,
        "timestamp": "2025-12-24T05:51:19.276832+00:00",
        "meta_object_name": "EUTELSAT 9B",
        "meta_object_id": "2016-005A",
        "meta_epoch": "2025-12-23T21:44:02.508576",
        "meta_mean_motion": 1.00272805,
        "meta_eccentricity": 0.00045039,
        "meta_inclination": 0.0224,
        "meta_ra_of_asc_node": 37.3402,
        "meta_arg_of_pericenter": 233.5602,
        "meta_mean_anomaly": 156.8118,
        "meta_ephemeris_type": 0,
        "meta_classification_type": "U",
        "meta_norad_cat_id": 41310,
        "meta_element_set_no": 999,
        "meta_rev_at_epoch": 3635,
        "meta_bstar": 0,
        "meta_mean_motion_dot": 8.3e-07,
        "meta_mean_motion_ddot": 0,
        "tle_line1": "1 41310U 16005A   25357.90558459  .00000083  00000+0  00000+0 0  9997",
        "tle_line2": "2 41310   0.0224  37.3402 0004503 233.5602 156.8118  1.00272805 36353"
      },
      "geometry": {
        "type": "Point",
        "coordinates": [
          -170.19074946484594,
          0.013717706743560015
        ]
      }
    },
    {
      "type": "Feature",
      "properties": {
        "norad_id": 41382,
        "name": "EUTELSAT 65 WEST A",
        "group": "eutelsat",
        "lat": 0.054502529391096066,
        "lon": 115.65520596641284,
        "alt_km": 35794.75135333562,
        "timestamp": "2025-12-24T05:51:19.276843+00:00",
        "meta_object_name": "EUTELSAT 65 WEST A",
        "meta_object_id": "2016-014A",
        "meta_epoch": "2025-12-23T19:40:14.366208",
        "meta_mean_motion": 1.00272538,
        "meta_eccentricity": 0.00022199,
        "meta_inclination": 0.0497,
        "meta_ra_of_asc_node": 340.4081,
        "meta_arg_of_pericenter": 295.3715,
        "meta_mean_anomaly": 46.7011,
        "meta_ephemeris_type": 0,
        "meta_classification_type": "U",
        "meta_norad_cat_id": 41382,
        "meta_element_set_no": 999,
        "meta_rev_at_epoch": 3577,
        "meta_bstar": 0,
        "meta_mean_motion_dot": -2.55e-06,
        "meta_mean_motion_ddot": 0,
        "tle_line1": "1 41382U 16014A   25357.81961072 -.00000255  00000+0  00000+0 0  9997",
        "tle_line2": "2 41382   0.0497 340.4081 0002219 295.3715  46.7011  1.00272538 35775"
      },
      "geometry": {
        "type": "Point",
        "coordinates": [
          115.65520596641284,
          0.054502529391096066
        ]
      }
    },
    {
      "type": "Feature",
      "properties": {
        "norad_id": 41589,
        "name": "EUTELSAT 117 WEST B",
        "group": "eutelsat",
        "lat": -0.00605760770187832,
        "lon": 63.831616629678,
        "alt_km": 35787.355549708125,
        "timestamp": "2025-12-24T05:51:19.276855+00:00",
        "meta_object_name": "EUTELSAT 117 WEST B",
        "meta_object_id": "2016-038B",
        "meta_epoch": "2025-12-23T11:38:38.460768",
        "meta_mean_motion": 1.00269065,
        "meta_eccentricity": 2.68e-05,
        "meta_inclination": 0.0101,
        "meta_ra_of_asc_node": 152.0489,
        "meta_arg_of_pericenter": 153.5082,
        "meta_mean_anomaly": 204.3674,
        "meta_ephemeris_type": 0,
        "meta_classification_type": "U",
        "meta_norad_cat_id": 41589,
        "meta_element_set_no": 999,
        "meta_rev_at_epoch": 3490,
        "meta_bstar": 0,
        "meta_mean_motion_dot": 1e-07,
        "meta_mean_motion_ddot": 0,
        "tle_line1": "1 41589U 16038B   25357.48516737  .00000010  00000+0  00000+0 0  9997",
        "tle_line2": "2 41589   0.0101 152.0489 0000268 153.5082 204.3674  1.00269065 34901"
      },
      "geometry": {
        "type": "Point",
        "coordinates": [
          63.831616629678,
          -0.00605760770187832
        ]
      }
    },
    {
      "type": "Feature",
      "properties": {
        "norad_id": 42741,
        "name": "EUTELSAT 172B",
        "group": "eutelsat",
        "lat": -0.01501601505231369,
        "lon": -7.153018373537034,
        "alt_km": 35787.455197343275,
        "timestamp": "2025-12-24T05:51:19.276866+00:00",
        "meta_object_name": "EUTELSAT 172B",
        "meta_object_id": "2017-029B",
        "meta_epoch": "2025-12-23T20:47:52.888704",
        "meta_mean_motion": 1.00269764,
        "meta_eccentricity": 2.513e-05,
        "meta_inclination": 0.0215,
        "meta_ra_of_asc_node": 113.3929,
        "meta_arg_of_pericenter": 20.3426,
        "meta_mean_anomaly": 82.8905,
        "meta_ephemeris_type": 0,
        "meta_classification_type": "U",
        "meta_norad_cat_id": 42741,
        "meta_element_set_no": 999,
        "meta_rev_at_epoch": 3197,
        "meta_bstar": 0,
        "meta_mean_motion_dot": 1.5e-07,
        "meta_mean_motion_ddot": 0,
        "tle_line1": "1 42741U 17029B   25357.86658436  .00000015  00000+0  00000+0 0  9999",
        "tle_line2": "2 42741   0.0215 113.3929 0000251  20.3426  82.8905  1.00269764 31978"
      },
      "geometry": {
        "type": "Point",
        "coordinates": [
          -7.153018373537034,
          -0.01501601505231369
        ]
      }
    }
  ]
}